[{"OBJECT_NAME":"GAOFEN-1 02","OBJECT_ID":"2018-031A","EPOCH":"2026-02-01T23:02:15.784224","MEAN_MOTION":14.76483799,"ECCENTRICITY":0.0004074,"INCLINATION":98.0729,"RA_OF_ASC_NODE":95.7471,"ARG_OF_PERICENTER":75.1269,"MEAN_ANOMALY":285.0392,"EPHEMERIS_TYPE":0,"CLASSIFICATION_TYPE":"U","NORAD_CAT_ID":43259,"ELEMENT_SET_NO":999,"REV_AT_EPOCH":42274,"BSTAR":0.0001183977,"MEAN_MOTION_DOT":7.72e-6,"MEAN_MOTION_DDOT":0},{"OBJECT_NAME":"GAOFEN-1 03","OBJECT_ID":"2018-031B","EPOCH":"2026-02-01T22:30:52.158816","MEAN_MOTION":14.76428178,"ECCENTRICITY":0.00038873,"INCLINATION":98.0713,"RA_OF_ASC_NODE":95.597,"ARG_OF_PERICENTER":132.0406,"MEAN_ANOMALY":228.1135,"EPHEMERIS_TYPE":0,"CLASSIFICATION_TYPE":"U","NORAD_CAT_ID":43260,"ELEMENT_SET_NO":999,"REV_AT_EPOCH":42273,"BSTAR":0.00013947276,"MEAN_MOTION_DOT":9.18e-6,"MEAN_MOTION_DDOT":0},{"OBJECT_NAME":"GAOFEN-1 04","OBJECT_ID":"2018-031D","EPOCH":"2026-02-01T23:33:31.344192","MEAN_MOTION":14.76443411,"ECCENTRICITY":0.00016702,"INCLINATION":98.0729,"RA_OF_ASC_NODE":95.8156,"ARG_OF_PERICENTER":117.869,"MEAN_ANOMALY":242.2688,"EPHEMERIS_TYPE":0,"CLASSIFICATION_TYPE":"U","NORAD_CAT_ID":43262,"ELEMENT_SET_NO":999,"REV_AT_EPOCH":42273,"BSTAR":7.7512162e-5,"MEAN_MOTION_DOT":4.87e-6,"MEAN_MOTION_DDOT":0},{"OBJECT_NAME":"SENTINEL-3B","OBJECT_ID":"2018-039A","EPOCH":"2026-02-01T18:27:06.727104","MEAN_MOTION":14.2673247,"ECCENTRICITY":7.377e-5,"INCLINATION":98.6306,"RA_OF_ASC_NODE":102.2121,"ARG_OF_PERICENTER":62.1463,"MEAN_ANOMALY":297.9792,"EPHEMERIS_TYPE":0,"CLASSIFICATION_TYPE":"U","NORAD_CAT_ID":43437,"ELEMENT_SET_NO":999,"REV_AT_EPOCH":40481,"BSTAR":6.779365e-5,"MEAN_MOTION_DOT":1.2e-6,"MEAN_MOTION_DDOT":0},{"OBJECT_NAME":"GAOFEN-5 01","OBJECT_ID":"2018-043A","EPOCH":"2026-02-01T21:30:15.091200","MEAN_MOTION":14.60479866,"ECCENTRICITY":0.00027433,"INCLINATION":98.4399,"RA_OF_ASC_NODE":1.7795,"ARG_OF_PERICENTER":117.4672,"MEAN_ANOMALY":242.6807,"EPHEMERIS_TYPE":0,"CLASSIFICATION_TYPE":"U","NORAD_CAT_ID":43461,"ELEMENT_SET_NO":999,"REV_AT_EPOCH":41194,"BSTAR":0.00010783514,"MEAN_MOTION_DOT":4.74e-6,"MEAN_MOTION_DDOT":0},{"OBJECT_NAME":"GAOFEN-6","OBJECT_ID":"2018-048A","EPOCH":"2026-02-01T22:45:28.558944","MEAN_MOTION":14.76591891,"ECCENTRICITY":0.00108631,"INCLINATION":97.7954,"RA_OF_ASC_NODE":100.4765,"ARG_OF_PERICENTER":251.9479,"MEAN_ANOMALY":108.0548,"EPHEMERIS_TYPE":0,"CLASSIFICATION_TYPE":"U","NORAD_CAT_ID":43484,"ELEMENT_SET_NO":999,"REV_AT_EPOCH":41343,"BSTAR":0.00014489389,"MEAN_MOTION_DOT":9.63e-6,"MEAN_MOTION_DDOT":0},{"OBJECT_NAME":"GAOFEN-11 01","OBJECT_ID":"2018-063A","EPOCH":"2026-02-01T22:43:25.125312","MEAN_MOTION":15.51001518,"ECCENTRICITY":0.00060771,"INCLINATION":97.1483,"RA_OF_ASC_NODE":100.4882,"ARG_OF_PERICENTER":110.0013,"MEAN_ANOMALY":250.1895,"EPHEMERIS_TYPE":0,"CLASSIFICATION_TYPE":"U","NORAD_CAT_ID":43585,"ELEMENT_SET_NO":999,"REV_AT_EPOCH":41935,"BSTAR":0.00020510352,"MEAN_MOTION_DOT":0.00011825,"MEAN_MOTION_DDOT":0},{"OBJECT_NAME":"ICESAT-2","OBJECT_ID":"2018-070A","EPOCH":"2026-02-01T21:00:35.048160","MEAN_MOTION":15.28269311,"ECCENTRICITY":0.00011813,"INCLINATION":92.0007,"RA_OF_ASC_NODE":254.528,"ARG_OF_PERICENTER":24.9233,"MEAN_ANOMALY":335.2073,"EPHEMERIS_TYPE":0,"CLASSIFICATION_TYPE":"U","NORAD_CAT_ID":43613,"ELEMENT_SET_NO":999,"REV_AT_EPOCH":41179,"BSTAR":0.00010241633,"MEAN_MOTION_DOT":2.822e-5,"MEAN_MOTION_DDOT":0},{"OBJECT_NAME":"HYSIS","OBJECT_ID":"2018-096A","EPOCH":"2026-02-01T22:31:01.951392","MEAN_MOTION":14.78658933,"ECCENTRICITY":9.692e-5,"INCLINATION":98.0023,"RA_OF_ASC_NODE":100.6447,"ARG_OF_PERICENTER":133.0902,"MEAN_ANOMALY":227.039,"EPHEMERIS_TYPE":0,"CLASSIFICATION_TYPE":"U","NORAD_CAT_ID":43719,"ELEMENT_SET_NO":999,"REV_AT_EPOCH":38743,"BSTAR":0.00016375411,"MEAN_MOTION_DOT":1.148e-5,"MEAN_MOTION_DDOT":0},{"OBJECT_NAME":"KAZSTSAT","OBJECT_ID":"2018-099AB","EPOCH":"2026-02-01T22:04:44.975136","MEAN_MOTION":14.99525171,"ECCENTRICITY":0.00096376,"INCLINATION":97.4482,"RA_OF_ASC_NODE":70.8751,"ARG_OF_PERICENTER":121.7297,"MEAN_ANOMALY":238.4867,"EPHEMERIS_TYPE":0,"CLASSIFICATION_TYPE":"U","NORAD_CAT_ID":43783,"ELEMENT_SET_NO":999,"REV_AT_EPOCH":39103,"BSTAR":0.00017253242,"MEAN_MOTION_DOT":2.065e-5,"MEAN_MOTION_DDOT":0},{"OBJECT_NAME":"SAUDISAT 5A","OBJECT_ID":"2018-102A","EPOCH":"2026-02-01T22:29:13.649856","MEAN_MOTION":15.26427794,"ECCENTRICITY":0.00085216,"INCLINATION":97.327,"RA_OF_ASC_NODE":97.1437,"ARG_OF_PERICENTER":250.006,"MEAN_ANOMALY":110.0262,"EPHEMERIS_TYPE":0,"CLASSIFICATION_TYPE":"U","NORAD_CAT_ID":43831,"ELEMENT_SET_NO":999,"REV_AT_EPOCH":39503,"BSTAR":0.00021480647,"MEAN_MOTION_DOT":5.527e-5,"MEAN_MOTION_DDOT":0},{"OBJECT_NAME":"SAUDISAT 5B","OBJECT_ID":"2018-102C","EPOCH":"2026-02-01T23:33:39.477024","MEAN_MOTION":15.26751544,"ECCENTRICITY":0.00092491,"INCLINATION":97.3364,"RA_OF_ASC_NODE":100.0169,"ARG_OF_PERICENTER":253.0845,"MEAN_ANOMALY":106.938,"EPHEMERIS_TYPE":0,"CLASSIFICATION_TYPE":"U","NORAD_CAT_ID":43833,"ELEMENT_SET_NO":999,"REV_AT_EPOCH":39515,"BSTAR":0.00021725582,"MEAN_MOTION_DOT":5.647e-5,"MEAN_MOTION_DDOT":0},{"OBJECT_NAME":"GAOFEN-10R","OBJECT_ID":"2019-066A","EPOCH":"2026-02-01T22:34:13.623744","MEAN_MOTION":14.83014965,"ECCENTRICITY":0.00057108,"INCLINATION":98.0344,"RA_OF_ASC_NODE":345.6729,"ARG_OF_PERICENTER":218.0837,"MEAN_ANOMALY":141.9973,"EPHEMERIS_TYPE":0,"CLASSIFICATION_TYPE":"U","NORAD_CAT_ID":44622,"ELEMENT_SET_NO":999,"REV_AT_EPOCH":34233,"BSTAR":0.00021460899,"MEAN_MOTION_DOT":1.69e-5,"MEAN_MOTION_DDOT":0},{"OBJECT_NAME":"CARTOSAT-3","OBJECT_ID":"2019-081A","EPOCH":"2026-02-01T22:32:00.803616","MEAN_MOTION":15.19237942,"ECCENTRICITY":0.00121803,"INCLINATION":97.4504,"RA_OF_ASC_NODE":96.8508,"ARG_OF_PERICENTER":268.0106,"MEAN_ANOMALY":91.9734,"EPHEMERIS_TYPE":0,"CLASSIFICATION_TYPE":"U","NORAD_CAT_ID":44804,"ELEMENT_SET_NO":999,"REV_AT_EPOCH":34293,"BSTAR":0.00013272091,"MEAN_MOTION_DOT":2.732e-5,"MEAN_MOTION_DDOT":0},{"OBJECT_NAME":"GAOFEN-12 01","OBJECT_ID":"2019-082A","EPOCH":"2026-02-01T23:12:01.471680","MEAN_MOTION":14.80732869,"ECCENTRICITY":0.0004061,"INCLINATION":97.8132,"RA_OF_ASC_NODE":42.9074,"ARG_OF_PERICENTER":87.355,"MEAN_ANOMALY":272.8127,"EPHEMERIS_TYPE":0,"CLASSIFICATION_TYPE":"U","NORAD_CAT_ID":44819,"ELEMENT_SET_NO":999,"REV_AT_EPOCH":33408,"BSTAR":7.5385644e-5,"MEAN_MOTION_DOT":5.29e-6,"MEAN_MOTION_DDOT":0},{"OBJECT_NAME":"CSG-1","OBJECT_ID":"2019-092A","EPOCH":"2026-02-01T23:06:23.321952","MEAN_MOTION":14.821597,"ECCENTRICITY":0.00012248,"INCLINATION":97.8839,"RA_OF_ASC_NODE":218.5218,"ARG_OF_PERICENTER":86.63,"MEAN_ANOMALY":273.5053,"EPHEMERIS_TYPE":0,"CLASSIFICATION_TYPE":"U","NORAD_CAT_ID":44873,"ELEMENT_SET_NO":999,"REV_AT_EPOCH":33144,"BSTAR":8.726518e-5,"MEAN_MOTION_DOT":6.43e-6,"MEAN_MOTION_DDOT":0},{"OBJECT_NAME":"NEMO-HD","OBJECT_ID":"2020-061F","EPOCH":"2026-02-01T23:52:44.239872","MEAN_MOTION":15.41637273,"ECCENTRICITY":0.00020637,"INCLINATION":97.2126,"RA_OF_ASC_NODE":96.4612,"ARG_OF_PERICENTER":121.3821,"MEAN_ANOMALY":238.7628,"EPHEMERIS_TYPE":0,"CLASSIFICATION_TYPE":"U","NORAD_CAT_ID":46277,"ELEMENT_SET_NO":999,"REV_AT_EPOCH":30113,"BSTAR":0.00024775661,"MEAN_MOTION_DOT":0.00010353,"MEAN_MOTION_DDOT":0}]
