GAOFEN-1 02             
1 43259U 18031A   26032.95990491  .00000772  00000+0  11840-3 0  9997
2 43259  98.0729  95.7471 0004074  75.1269 285.0392 14.76483799422744
GAOFEN-1 03             
1 43260U 18031B   26032.93810369  .00000918  00000+0  13947-3 0  9994
2 43260  98.0713  95.5970 0003887 132.0406 228.1135 14.76428178422730
GAOFEN-1 04             
1 43262U 18031D   26032.98161278  .00000487  00000+0  77512-4 0  9999
2 43262  98.0729  95.8156 0001670 117.8690 242.2688 14.76443411422739
SENTINEL-3B             
1 43437U 18039A   26032.76882786  .00000120  00000+0  67794-4 0  9996
2 43437  98.6306 102.2121 0000737  62.1463 297.9792 14.26732470404811
GAOFEN-5 01             
1 43461U 18043A   26032.89600800  .00000474  00000+0  10784-3 0  9995
2 43461  98.4399   1.7795 0002743 117.4672 242.6807 14.60479866411944
GAOFEN-6                
1 43484U 18048A   26032.94824721  .00000963  00000+0  14489-3 0  9990
2 43484  97.7954 100.4765 0010863 251.9479 108.0548 14.76591891413436
GAOFEN-11 01            
1 43585U 18063A   26032.94681858  .00011825  00000+0  20510-3 0  9992
2 43585  97.1483 100.4882 0006077 110.0013 250.1895 15.51001518419357
ICESAT-2                
1 43613U 18070A   26032.87540565  .00002822  00000+0  10242-3 0  9991
2 43613  92.0007 254.5280 0001181  24.9233 335.2073 15.28269311411790
HYSIS                   
1 43719U 18096A   26032.93821703  .00001148  00000+0  16375-3 0  9992
2 43719  98.0023 100.6447 0000969 133.0902 227.0390 14.78658933387434
KAZSTSAT                
1 43783U 18099AB  26032.91996499  .00002065  00000+0  17253-3 0  9994
2 43783  97.4482  70.8751 0009637 121.7297 238.4867 14.99525171391031
SAUDISAT 5A             
1 43831U 18102A   26032.93696354  .00005527  00000+0  21481-3 0  9996
2 43831  97.3270  97.1437 0008521 250.0060 110.0262 15.26427794395038
SAUDISAT 5B             
1 43833U 18102C   26032.98170691  .00005647  00000+0  21726-3 0  9999
2 43833  97.3364 100.0169 0009249 253.0845 106.9380 15.26751544395153
GAOFEN-10R              
1 44622U 19066A   26032.94043546  .00001690  00000+0  21461-3 0  9990
2 44622  98.0344 345.6729 0005710 218.0837 141.9973 14.83014965342336
CARTOSAT-3              
1 44804U 19081A   26032.93889819  .00002732  00000+0  13272-3 0  9998
2 44804  97.4504  96.8508 0012180 268.0106  91.9734 15.19237942342939
GAOFEN-12 01            
1 44819U 19082A   26032.96668370  .00000529  00000+0  75386-4 0  9992
2 44819  97.8132  42.9074 0004061  87.3550 272.8127 14.80732869334088
CSG-1                   
1 44873U 19092A   26032.96276993  .00000643  00000+0  87265-4 0  9995
2 44873  97.8839 218.5218 0001224  86.6300 273.5053 14.82159700331448
NEMO-HD                 
1 46277U 20061F   26032.99495648  .00010353  00000+0  24776-3 0  9992
2 46277  97.2126  96.4612 0002063 121.3821 238.7628 15.41637273301135
